start=new Date('2022-12-26T00:00:00.000Z').valueOf();
sats=[{"GP_ID":"221423604","RA_OF_ASC_NODE":"284.8191","COUNTRY_CODE":"US","REF_FRAME":"TEME","MEAN_MOTION_DDOT":"0.0000000000000","ECCENTRICITY":"0.00021820","MEAN_ELEMENT_THEORY":"SGP4","CLASSIFICATION_TYPE":"U","RCS_SIZE":"LARGE","INCLINATION":"53.0555","PERIAPSIS":"545.725","MEAN_MOTION_DOT":"0.00000801","MEAN_MOTION":"15.06392800","TLE_LINE1":"1 47625U 21012F   22359.49338002  .00000801  00000-0  72698-4 0  9995","APOAPSIS":"548.747","BSTAR":"0.00007269800000","TIME_SYSTEM":"UTC","OBJECT_NAME":"STARLINK-1704","ARG_OF_PERICENTER":"58.2679","EPHEMERIS_TYPE":"0","MEAN_ANOMALY":"301.8522","REV_AT_EPOCH":"10309","TLE_LINE2":"2 47625  53.0555 284.8191 0002182  58.2679 301.8522 15.06392800103090","NORAD_CAT_ID":"47625","EPOCH":"2022-12-25T11:50:28.033728","SITE":"AFETR","DECAY_DATE":null,"PERIOD":"95.593","OBJECT_ID":"2021-012F","ELEMENT_SET_NO":"999","LAUNCH_DATE":"2021-02-16","SEMIMAJOR_AXIS":"6925.371","FILE":"3722091","OBJECT_TYPE":"PAYLOAD","CENTER_NAME":"EARTH"},{"EPOCH":"2022-12-25T05:08:25.965024","ELEMENT_SET_NO":"999","DECAY_DATE":null,"SITE":"AFETR","OBJECT_ID":"2021-012G","PERIOD":"95.592","REV_AT_EPOCH":"10305","NORAD_CAT_ID":"47626","TLE_LINE2":"2 47626  53.0559 286.0980 0001641  65.2912 294.8247 15.06398947103051","OBJECT_TYPE":"PAYLOAD","CENTER_NAME":"EARTH","SEMIMAJOR_AXIS":"6925.352","LAUNCH_DATE":"2021-02-16","FILE":"3721655","ARG_OF_PERICENTER":"65.2912","BSTAR":"0.00009077200000","APOAPSIS":"548.353","TIME_SYSTEM":"UTC","TLE_LINE1":"1 47626U 21012G   22359.21418941  .00001071  00000-0  90772-4 0  9990","OBJECT_NAME":"STARLINK-1761","EPHEMERIS_TYPE":"0","MEAN_ANOMALY":"294.8247","PERIAPSIS":"546.080","INCLINATION":"53.0559","RCS_SIZE":"LARGE","MEAN_MOTION_DOT":"0.00001071","CLASSIFICATION_TYPE":"U","MEAN_MOTION":"15.06398947","RA_OF_ASC_NODE":"286.0980","COUNTRY_CODE":"US","GP_ID":"221387777","MEAN_MOTION_DDOT":"0.0000000000000","ECCENTRICITY":"0.00016410","MEAN_ELEMENT_THEORY":"SGP4","REF_FRAME":"TEME"},{"REV_AT_EPOCH":"10496","TLE_LINE2":"2 47627  53.0542 188.3720 0001578  71.2527 288.8633 15.06402762104962","NORAD_CAT_ID":"47627","EPOCH":"2022-12-25T19:43:33.513024","DECAY_DATE":null,"SITE":"AFETR","PERIOD":"95.592","OBJECT_ID":"2021-012H","ELEMENT_SET_NO":"999","LAUNCH_DATE":"2021-02-16","SEMIMAJOR_AXIS":"6925.340","FILE":"3722315","OBJECT_TYPE":"PAYLOAD","CENTER_NAME":"EARTH","TLE_LINE1":"1 47627U 21012H   22359.82191566  .00001390  00000-0  11222-3 0  9995","APOAPSIS":"548.298","BSTAR":"0.00011222000000","TIME_SYSTEM":"UTC","OBJECT_NAME":"STARLINK-1972","ARG_OF_PERICENTER":"71.2527","EPHEMERIS_TYPE":"0","MEAN_ANOMALY":"288.8633","CLASSIFICATION_TYPE":"U","RCS_SIZE":"LARGE","INCLINATION":"53.0542","PERIAPSIS":"546.112","MEAN_MOTION_DOT":"0.00001390","MEAN_MOTION":"15.06402762","GP_ID":"221449887","RA_OF_ASC_NODE":"188.3720","COUNTRY_CODE":"US","REF_FRAME":"TEME","ECCENTRICITY":"0.00015780","MEAN_MOTION_DDOT":"0.0000000000000","MEAN_ELEMENT_THEORY":"SGP4"},{"MEAN_ELEMENT_THEORY":"SGP4","ECCENTRICITY":"0.00014250","MEAN_MOTION_DDOT":"0.0000000000000","REF_FRAME":"TEME","COUNTRY_CODE":"US","RA_OF_ASC_NODE":"284.7330","GP_ID":"221418579","MEAN_MOTION":"15.06397696","MEAN_MOTION_DOT":"-0.00000389","INCLINATION":"53.0533","RCS_SIZE":"LARGE","PERIAPSIS":"546.234","CLASSIFICATION_TYPE":"U","MEAN_ANOMALY":"260.4237","EPHEMERIS_TYPE":"0","ARG_OF_PERICENTER":"99.6913","OBJECT_NAME":"STARLINK-1973","TLE_LINE1":"1 47628U 21012J   22359.51549720 -.00000389  00000-0 -71941-5 0  9996","APOAPSIS":"548.207","BSTAR":"-0.00000719410000","TIME_SYSTEM":"UTC","CENTER_NAME":"EARTH","OBJECT_TYPE":"PAYLOAD","FILE":"3722051","SEMIMAJOR_AXIS":"6925.356","LAUNCH_DATE":"2021-02-16","SITE":"AFETR","DECAY_DATE":null,"OBJECT_ID":"2021-012J","PERIOD":"95.592","ELEMENT_SET_NO":"999","EPOCH":"2022-12-25T12:22:18.958080","TLE_LINE2":"2 47628  53.0533 284.7330 0001425  99.6913 260.4237 15.06397696103611","NORAD_CAT_ID":"47628","REV_AT_EPOCH":"10361"},{"REF_FRAME":"TEME","MEAN_MOTION_DDOT":"0.0000000000000","ECCENTRICITY":"0.00014950","MEAN_ELEMENT_THEORY":"SGP4","GP_ID":"221451388","RA_OF_ASC_NODE":"163.6353","COUNTRY_CODE":"US","MEAN_MOTION":"15.06398506","CLASSIFICATION_TYPE":"U","RCS_SIZE":"LARGE","INCLINATION":"53.0541","PERIAPSIS":"546.183","MEAN_MOTION_DOT":"-0.00000291","EPHEMERIS_TYPE":"0","MEAN_ANOMALY":"287.4963","TLE_LINE1":"1 47629U 21012K   22359.76339941 -.00000291  00000-0 -61672-6 0  9999","TIME_SYSTEM":"UTC","APOAPSIS":"548.253","BSTAR":"-0.00000061672000","OBJECT_NAME":"STARLINK-1974","ARG_OF_PERICENTER":"72.6190","LAUNCH_DATE":"2021-02-16","SEMIMAJOR_AXIS":"6925.353","FILE":"3722315","OBJECT_TYPE":"PAYLOAD","CENTER_NAME":"EARTH","REV_AT_EPOCH":"10531","TLE_LINE2":"2 47629  53.0541 163.6353 0001495  72.6190 287.4963 15.06398506105311","NORAD_CAT_ID":"47629","EPOCH":"2022-12-25T18:19:17.709024","DECAY_DATE":null,"PERIOD":"95.592","SITE":"AFETR","OBJECT_ID":"2021-012K","ELEMENT_SET_NO":"999"},{"OBJECT_NAME":"STARLINK-1983","TLE_LINE1":"1 47630U 21012L   22359.72102771 -.00000633  00000-0 -23627-4 0  9992","APOAPSIS":"548.426","BSTAR":"-0.00002362700000","TIME_SYSTEM":"UTC","ARG_OF_PERICENTER":"56.4693","MEAN_ANOMALY":"303.6459","EPHEMERIS_TYPE":"0","TLE_LINE2":"2 47630  53.0552 263.9069 0001704  56.4693 303.6459 15.06389483103902","NORAD_CAT_ID":"47630","REV_AT_EPOCH":"10390","SITE":"AFETR","DECAY_DATE":null,"OBJECT_ID":"2021-012L","PERIOD":"95.593","ELEMENT_SET_NO":"999","EPOCH":"2022-12-25T17:18:16.794144","FILE":"3722315","SEMIMAJOR_AXIS":"6925.381","LAUNCH_DATE":"2021-02-16","CENTER_NAME":"EARTH","OBJECT_TYPE":"PAYLOAD","GP_ID":"221451139","COUNTRY_CODE":"US","RA_OF_ASC_NODE":"263.9069","REF_FRAME":"TEME","MEAN_ELEMENT_THEORY":"SGP4","ECCENTRICITY":"0.00017040","MEAN_MOTION_DDOT":"0.0000000000000","CLASSIFICATION_TYPE":"U","MEAN_MOTION_DOT":"-0.00000633","RCS_SIZE":"LARGE","INCLINATION":"53.0552","PERIAPSIS":"546.066","MEAN_MOTION":"15.06389483"},{"REV_AT_EPOCH":"10495","NORAD_CAT_ID":"47632","TLE_LINE2":"2 47632  53.0520 188.8415 0001598  60.2538 299.8610 15.06399307104958","EPOCH":"2022-12-25T17:08:16.803168","ELEMENT_SET_NO":"999","PERIOD":"95.592","DECAY_DATE":null,"SITE":"AFETR","OBJECT_ID":"2021-012N","LAUNCH_DATE":"2021-02-16","SEMIMAJOR_AXIS":"6925.351","FILE":"3722315","OBJECT_TYPE":"PAYLOAD","CENTER_NAME":"EARTH","TIME_SYSTEM":"UTC","APOAPSIS":"548.322","BSTAR":"0.00015510000000","TLE_LINE1":"1 47632U 21012N   22359.71408337  .00002029  00000-0  15510-3 0  9990","OBJECT_NAME":"STARLINK-1992","ARG_OF_PERICENTER":"60.2538","EPHEMERIS_TYPE":"0","MEAN_ANOMALY":"299.8610","CLASSIFICATION_TYPE":"U","PERIAPSIS":"546.109","INCLINATION":"53.0520","RCS_SIZE":"LARGE","MEAN_MOTION_DOT":"0.00002029","MEAN_MOTION":"15.06399307","GP_ID":"221450387","RA_OF_ASC_NODE":"188.8415","COUNTRY_CODE":"US","REF_FRAME":"TEME","ECCENTRICITY":"0.00015980","MEAN_MOTION_DDOT":"0.0000000000000","MEAN_ELEMENT_THEORY":"SGP4"},{"MEAN_MOTION":"15.06399675","PERIAPSIS":"545.976","RCS_SIZE":"LARGE","INCLINATION":"53.0552","MEAN_MOTION_DOT":"-0.00000524","CLASSIFICATION_TYPE":"U","ECCENTRICITY":"0.00017880","MEAN_MOTION_DDOT":"0.0000000000000","MEAN_ELEMENT_THEORY":"SGP4","REF_FRAME":"TEME","RA_OF_ASC_NODE":"284.6925","COUNTRY_CODE":"US","GP_ID":"221450637","OBJECT_TYPE":"PAYLOAD","CENTER_NAME":"EARTH","LAUNCH_DATE":"2021-02-16","SEMIMAJOR_AXIS":"6925.350","FILE":"3722315","EPOCH":"2022-12-25T12:48:51.093216","ELEMENT_SET_NO":"999","DECAY_DATE":null,"PERIOD":"95.592","SITE":"AFETR","OBJECT_ID":"2021-012P","REV_AT_EPOCH":"10363","NORAD_CAT_ID":"47633","TLE_LINE2":"2 47633  53.0552 284.6925 0001788  59.5260 300.5906 15.06399675103639","EPHEMERIS_TYPE":"0","MEAN_ANOMALY":"300.5906","ARG_OF_PERICENTER":"59.5260","APOAPSIS":"548.453","BSTAR":"-0.00001627100000","TIME_SYSTEM":"UTC","TLE_LINE1":"1 47633U 21012P   22359.53392469 -.00000524  00000-0 -16271-4 0  9995","OBJECT_NAME":"STARLINK-2009"},{"FILE":"3722315","LAUNCH_DATE":"2021-02-16","SEMIMAJOR_AXIS":"6925.353","CENTER_NAME":"EARTH","OBJECT_TYPE":"PAYLOAD","TLE_LINE2":"2 47634  53.0558 283.2861 0001539  81.0961 279.0202 15.06398454103657","NORAD_CAT_ID":"47634","REV_AT_EPOCH":"10365","DECAY_DATE":null,"SITE":"AFETR","PERIOD":"95.592","OBJECT_ID":"2021-012Q","ELEMENT_SET_NO":"999","EPOCH":"2022-12-25T20:10:45.558048","MEAN_ANOMALY":"279.0202","EPHEMERIS_TYPE":"0","OBJECT_NAME":"STARLINK-2010","TLE_LINE1":"1 47634U 21012Q   22359.84080507 -.00000290  00000-0 -55016-6 0  9999","APOAPSIS":"548.284","BSTAR":"-0.00000055016000","TIME_SYSTEM":"UTC","ARG_OF_PERICENTER":"81.0961","MEAN_MOTION":"15.06398454","CLASSIFICATION_TYPE":"U","MEAN_MOTION_DOT":"-0.00000290","INCLINATION":"53.0558","RCS_SIZE":"LARGE","PERIAPSIS":"546.152","REF_FRAME":"TEME","MEAN_ELEMENT_THEORY":"SGP4","ECCENTRICITY":"0.00015390","MEAN_MOTION_DDOT":"0.0000000000000","GP_ID":"221450889","COUNTRY_CODE":"US","RA_OF_ASC_NODE":"283.2861"},{"OBJECT_TYPE":"PAYLOAD","CENTER_NAME":"EARTH","SEMIMAJOR_AXIS":"6925.400","LAUNCH_DATE":"2021-02-16","FILE":"3722315","EPOCH":"2022-12-25T16:00:38.723904","ELEMENT_SET_NO":"999","SITE":"AFETR","DECAY_DATE":null,"PERIOD":"95.593","OBJECT_ID":"2021-012R","REV_AT_EPOCH":"10496","NORAD_CAT_ID":"47635","TLE_LINE2":"2 47635  53.0545 189.0657 0001672  72.0102 288.1069 15.06383321104969","EPHEMERIS_TYPE":"0","MEAN_ANOMALY":"288.1069","ARG_OF_PERICENTER":"72.0102","APOAPSIS":"548.423","BSTAR":"0.00006713200000","TIME_SYSTEM":"UTC","TLE_LINE1":"1 47635U 21012R   22359.66711486  .00000718  00000-0  67132-4 0  9990","OBJECT_NAME":"STARLINK-2012","MEAN_MOTION":"15.06383321","PERIAPSIS":"546.107","RCS_SIZE":"LARGE","INCLINATION":"53.0545","MEAN_MOTION_DOT":"0.00000718","CLASSIFICATION_TYPE":"U","MEAN_MOTION_DDOT":"0.0000000000000","ECCENTRICITY":"0.00016720","MEAN_ELEMENT_THEORY":"SGP4","REF_FRAME":"TEME","RA_OF_ASC_NODE":"189.0657","COUNTRY_CODE":"US","GP_ID":"221451639"}];
